IRIDIUM 39              
1 25042U 97069D   25248.84256105  .00001065  00000+0  27320-3 0  9994
2 25042  86.3984 176.5809 0019451  42.5622 317.7085 14.49313536460640
IRIDIUM 38              
1 25043U 97069E   25248.94915969  .00000752  00000+0  24135-3 0  9999
2 25043  86.4005 199.1910 0002508 133.8179 226.3227 14.38181741457565
IRIDIUM 42              
1 25077U 97077A   25248.91530155  .00000720  00000+0  23941-3 0  9991
2 25077  86.3996 205.4683 0001882 106.3668 253.7736 14.36412225452780
IRIDIUM 44              
1 25078U 97077B   25248.92975932  .00000776  00000+0  23883-3 0  9995
2 25078  86.4024 187.1946 0003910 102.7644 257.3993 14.40306578455326
IRIDIUM 45              
1 25104U 97082A   25248.90535887  .00023938  00000+0  79103-3 0  9991
2 25104  86.3613   8.6118 0110902  29.4947 331.2493 15.25394841464330
IRIDIUM 24              
1 25105U 97082B   25248.93750027  .00000949  00000+0  28235-3 0  9997
2 25105  86.3887  46.0214 0011917 161.3196 198.8444 14.42172474454858
IRIDIUM 51              
1 25262U 98018A   25248.87991482  .00049541  00000+0  92602-3 0  9996
2 25262  86.3843  15.7089 0075563 298.7642  60.6038 15.45369556459465
IRIDIUM 57              
1 25273U 98019B   25248.86846353  .00000483  00000+0  15989-3 0  9999
2 25273  86.3931 111.4604 0002098  89.8462 270.2975 14.35941894436366
